{
"type": "FeatureCollection",
"name": "CAR CYNTIA",
"crs": { "type": "name", "properties": { "name": "urn:ogc:def:crs:EPSG::4674" } },
"features": [
{ "type": "Feature", "properties": { "id": "car_cyntia.1", "Name": null, "description": null, "timestamp": null, "begin": null, "end": null, "altitudeMode": null, "tessellate": -1, "extrude": 0, "visibility": -1, "drawOrder": null, "icon": null, "cod_imovel": "MG-3168606-559F3AB0BF894B83AE994E2D2B803FCB", "status_imo": "AT", "dat_criaca": "2025/09/01 17:06:05.153", "data_atual": "2025/09/07 22:12:44.193", "area": 34.0858, "condicao": "Aguardando análise", "uf": "MG", "municipio": "Teófilo Otoni", "cod_munici": 3168606.0, "m_fiscal": 0.8521, "tipo_imove": "IRU" }, "geometry": { "type": "MultiPolygon", "coordinates": [ [ [ [ -41.51549737, -17.99622232 ], [ -41.5149496, -17.99527408 ], [ -41.51344123, -17.99684353 ], [ -41.51110836, -17.99937372 ], [ -41.51133205, -17.99996823 ], [ -41.51128938, -18.00023356 ], [ -41.51140027, -18.00040206 ], [ -41.51199278, -18.00017136 ], [ -41.51228745, -18.00014614 ], [ -41.51288894, -18.00038107 ], [ -41.51507378, -17.99995294 ], [ -41.51585871, -18.00019612 ], [ -41.51627281, -18.00065327 ], [ -41.51658869, -18.00116726 ], [ -41.51688243, -18.00221096 ], [ -41.51711439, -18.00258718 ], [ -41.51817681, -18.00289899 ], [ -41.51825645, -18.00269274 ], [ -41.51885462, -18.00213328 ], [ -41.51930243, -18.00149165 ], [ -41.51943308, -18.00125223 ], [ -41.51954435, -18.00052123 ], [ -41.51959671, -18.00032805 ], [ -41.51956931, -18.00003977 ], [ -41.51923473, -17.99919996 ], [ -41.51853633, -17.9987675 ], [ -41.51807915, -17.99844455 ], [ -41.51743553, -17.99776843 ], [ -41.51731893, -17.99760957 ], [ -41.51611794, -17.9968858 ], [ -41.51549737, -17.99622232 ] ] ] ] } }
]
}
