<?xml version="1.0" encoding="UTF-8"?>
<kml xmlns="http://earth.google.com/kml/2.1">
<Document>

    
    <Placemark>
        <name>
            Sitio da Serra VI
        </name>
        <ExtendedData>
          <Data name="qrcode">
            <displayName>QRCode</displayName>
            <value>49879efb-c2bc-43ae-84e6-ff1b466d7746</value>
          </Data>
        </ExtendedData>
        <MultiGeometry>
            <Polygon><outerBoundaryIs><LinearRing><coordinates>-43.4264525,-21.92582444,546.01 -43.42627417,-21.92587528,545.54 -43.42597917,-21.92596806,544.37 -43.42574472,-21.92606361,543.18 -43.42565528,-21.92612111,542.5 -43.42567889,-21.92615083,544.73 -43.42698806,-21.9281225,605.25 -43.42710694,-21.92802083,604.72 -43.42732361,-21.92786139,604.34 -43.42745722,-21.92779167,605.13 -43.42757056,-21.92774,606.56 -43.42754472,-21.92768694,605.91 -43.42738972,-21.92737917,589.13 -43.42721944,-21.92706139,579.49 -43.42687556,-21.92648417,564.05 -43.42666833,-21.926165,554.43 -43.42656444,-21.92600306,550.93 -43.42648056,-21.92586917,547.96 -43.4264525,-21.92582444,546.01</coordinates></LinearRing></outerBoundaryIs></Polygon>
        </MultiGeometry>
    </Placemark>
    

</Document>
</kml>
