{
"type": "FeatureCollection",
"name": "SITIO VISTA ALEGRE",
"crs": { "type": "name", "properties": { "name": "urn:ogc:def:crs:EPSG::31983" } },
"features": [
{ "type": "Feature", "properties": { "id": null, "Name": "Trilha 0001", "description": null, "timestamp": null, "begin": null, "end": null, "altitudeMode": null, "tessellate": -1, "extrude": 0, "visibility": -1, "drawOrder": null, "icon": null }, "geometry": { "type": "LineString", "coordinates": [ [ 666726.589908093214035, 7576397.511368698440492, 0.0 ], [ 666727.563012662343681, 7576398.954023621976376, 0.0 ], [ 666729.39182327920571, 7576401.923813349567354, 0.0 ] ] } },
{ "type": "Feature", "properties": { "id": null, "Name": "Trilha 0002", "description": null, "timestamp": null, "begin": null, "end": null, "altitudeMode": null, "tessellate": -1, "extrude": 0, "visibility": -1, "drawOrder": null, "icon": null }, "geometry": { "type": "LineString", "coordinates": [ [ 666682.871404081117362, 7576300.645270525477827, 0.0 ], [ 666708.746553677716292, 7576341.179536720737815, 0.0 ], [ 666696.006092946161516, 7576350.527057219296694, 0.0 ] ] } },
{ "type": "Feature", "properties": { "id": null, "Name": "Trilha 0003", "description": null, "timestamp": null, "begin": null, "end": null, "altitudeMode": null, "tessellate": -1, "extrude": 0, "visibility": -1, "drawOrder": null, "icon": null }, "geometry": { "type": "LineString", "coordinates": [ [ 666669.695260673761368, 7576310.202388737350702, 0.0 ], [ 666675.766300135059282, 7576305.561617635190487, 0.0 ], [ 666682.871404081117362, 7576300.645270525477827, 0.0 ] ] } },
{ "type": "Feature", "properties": { "id": null, "Name": "Trilha 0004", "description": null, "timestamp": null, "begin": null, "end": null, "altitudeMode": null, "tessellate": -1, "extrude": 0, "visibility": -1, "drawOrder": null, "icon": null }, "geometry": { "type": "LineString", "coordinates": [ [ 666669.695260673761368, 7576310.202388737350702, 0.0 ], [ 666675.72042453289032, 7576319.963465900160372, 0.0 ] ] } },
{ "type": "Feature", "properties": { "id": null, "Name": "Trilha 0005", "description": null, "timestamp": null, "begin": null, "end": null, "altitudeMode": null, "tessellate": -1, "extrude": 0, "visibility": -1, "drawOrder": null, "icon": null }, "geometry": { "type": "LineString", "coordinates": [ [ 666675.72042453289032, 7576319.963465900160372, 0.0 ], [ 666682.718684853054583, 7576330.174600010737777, 0.0 ] ] } },
{ "type": "Feature", "properties": { "id": null, "Name": "Trilha 0006", "description": null, "timestamp": null, "begin": null, "end": null, "altitudeMode": null, "tessellate": -1, "extrude": 0, "visibility": -1, "drawOrder": null, "icon": null }, "geometry": { "type": "LineString", "coordinates": [ [ 666729.39182327920571, 7576401.923813349567354, 0.0 ], [ 666744.501349293161184, 7576401.67074141278863, 0.0 ], [ 666764.038771784049459, 7576402.685732064768672, 0.0 ], [ 666773.932559169828892, 7576397.58382978476584, 0.0 ], [ 666781.541400193003938, 7576392.600243854336441, 0.0 ], [ 666791.554149264120497, 7576375.033788800239563, 0.0 ], [ 666798.573684100992978, 7576365.673350900411606, 0.0 ], [ 666806.706914594280533, 7576349.246149316430092, 0.0 ], [ 666810.798902670969255, 7576345.990420317277312, 0.0 ], [ 666820.568247658433393, 7576345.173428598791361, 0.0 ], [ 666836.446737485239282, 7576347.08895568549633, 0.0 ], [ 666853.013462339178659, 7576348.802496878430247, 0.0 ], [ 666864.230416053207591, 7576343.705237460322678, 0.0 ], [ 666870.888880969490856, 7576336.472122966311872, 0.0 ], [ 666885.317840171628632, 7576333.846897456794977, 0.0 ], [ 666894.120141274295747, 7576337.290942740626633, 0.0 ], [ 666902.569667635252699, 7576344.606318313628435, 0.0 ], [ 666915.870139755657874, 7576353.470592518337071, 0.0 ], [ 666919.336368086049333, 7576354.6969835460186, 0.0 ], [ 666926.121571212774143, 7576349.01805024407804, 0.0 ], [ 666930.956781725399196, 7576333.481635050848126, 0.0 ], [ 666931.838011051760986, 7576320.980179956182837, 0.0 ], [ 666936.586408350267448, 7576307.717521948739886, 0.0 ], [ 666941.331581590464339, 7576301.487626945599914, 0.0 ] ] } },
{ "type": "Feature", "properties": { "id": null, "Name": "Trilha 0007", "description": null, "timestamp": null, "begin": null, "end": null, "altitudeMode": null, "tessellate": -1, "extrude": 0, "visibility": -1, "drawOrder": null, "icon": null }, "geometry": { "type": "LineString", "coordinates": [ [ 666698.556512618786655, 7576354.360993502661586, 0.0 ], [ 666705.242262733867392, 7576364.816720018163323, 0.0 ], [ 666718.842127635492943, 7576385.91781841404736, 0.0 ], [ 666726.589908093214035, 7576397.511368698440492, 0.0 ] ] } },
{ "type": "Feature", "properties": { "id": null, "Name": "Trilha 0008", "description": null, "timestamp": null, "begin": null, "end": null, "altitudeMode": null, "tessellate": -1, "extrude": 0, "visibility": -1, "drawOrder": null, "icon": null }, "geometry": { "type": "LineString", "coordinates": [ [ 666682.718684853054583, 7576330.174600010737777, 0.0 ], [ 666688.579623579978943, 7576339.13056724704802, 0.0 ], [ 666696.006092946161516, 7576350.527057219296694, 0.0 ] ] } },
{ "type": "Feature", "properties": { "id": null, "Name": "Trilha 0009", "description": null, "timestamp": null, "begin": null, "end": null, "altitudeMode": null, "tessellate": -1, "extrude": 0, "visibility": -1, "drawOrder": null, "icon": null }, "geometry": { "type": "LineString", "coordinates": [ [ 666686.852332185488194, 7576297.936844998970628, 0.0 ], [ 666695.52142939157784, 7576292.052758181467652, 0.0 ], [ 666703.081040446297266, 7576286.9358383808285, 0.0 ], [ 666708.400719946017489, 7576283.45051484555006, 0.0 ], [ 666716.60184537130408, 7576278.257158938795328, 0.0 ], [ 666724.032620322424918, 7576273.536076709628105, 0.0 ], [ 666732.054177065030672, 7576268.082796320319176, 0.0 ], [ 666740.984392878832296, 7576261.756508342921734, 0.0 ], [ 666745.736967105534859, 7576258.23641555942595, 0.0 ], [ 666753.163985778344795, 7576252.760566992685199, 0.0 ], [ 666759.17371880763676, 7576248.084071772173047, 0.0 ], [ 666763.676433615502901, 7576244.497305352240801, 0.0 ], [ 666769.806573121808469, 7576239.869754798710346, 0.0 ], [ 666775.274305027909577, 7576236.179684315808117, 0.0 ], [ 666779.893991260789335, 7576232.947536384686828, 0.0 ], [ 666788.222922229440883, 7576227.491464218124747, 0.0 ], [ 666795.183270269539207, 7576223.592008911073208, 0.0 ], [ 666801.33705553994514, 7576220.591187749058008, 0.0 ], [ 666809.353215981740505, 7576217.151652537286282, 0.0 ], [ 666821.056791655020788, 7576212.036282654851675, 0.0 ], [ 666829.792108172317967, 7576208.325301362201571, 0.0 ], [ 666837.405206097871996, 7576204.994131212122738, 0.0 ], [ 666845.283576790010557, 7576201.550752034410834, 0.0 ], [ 666853.099855232867412, 7576197.658466685563326, 0.0 ], [ 666860.292081563035026, 7576193.741692903451622, 0.0 ], [ 666868.236657203058712, 7576189.19918698258698, 0.0 ], [ 666872.868526496808045, 7576186.92299316637218, 0.0 ], [ 666877.932773153763264, 7576184.783826594240963, 0.0 ], [ 666882.65651744150091, 7576183.146767941303551, 0.0 ], [ 666887.654546504840255, 7576181.625298317521811, 0.0 ], [ 666892.361412423779257, 7576180.269200788810849, 0.0 ], [ 666897.345260411617346, 7576178.830471895635128, 0.0 ], [ 666906.553484302130528, 7576176.521350353956223, 0.0 ], [ 666915.810943805845454, 7576174.15655055642128, 0.0 ], [ 666923.282631514826789, 7576171.650592777878046, 0.0 ], [ 666932.311397720244713, 7576167.810476874001324, 0.0 ], [ 666942.254504936281592, 7576162.758821330033243, 0.0 ], [ 666948.071909275604412, 7576159.486071096733212, 0.0 ], [ 666954.574410771369003, 7576155.682698987424374, 0.0 ], [ 666960.492793081211857, 7576151.545820287428796, 0.0 ], [ 666966.635099910316058, 7576146.353697828948498, 0.0 ], [ 666974.099913437152281, 7576139.782984768971801, 0.0 ], [ 666977.274113974766806, 7576136.87528533115983, 0.0 ], [ 666984.649762956192717, 7576130.260885024443269, 0.0 ], [ 666988.9191141637275, 7576126.849894701503217, 0.0 ], [ 666992.144633681047708, 7576124.482467783614993, 0.0 ], [ 666995.360858517582528, 7576122.405454476363957, 0.0 ], [ 666998.38389262126293, 7576120.658272793516517, 0.0 ], [ 667002.542928971815854, 7576118.631974888965487, 0.0 ], [ 667005.656851176987402, 7576117.399913956411183, 0.0 ], [ 667010.187605644692667, 7576116.09876873344183, 0.0 ], [ 667014.325994787272066, 7576115.54763238132, 0.0 ] ] } },
{ "type": "Feature", "properties": { "id": null, "Name": "Trilha 0010", "description": null, "timestamp": null, "begin": null, "end": null, "altitudeMode": null, "tessellate": -1, "extrude": 0, "visibility": -1, "drawOrder": null, "icon": null }, "geometry": { "type": "LineString", "coordinates": [ [ 666698.556512618786655, 7576354.360993502661586, 0.0 ], [ 666714.940394984441809, 7576342.588235185481608, 0.0 ], [ 666686.852332185488194, 7576297.936844998970628, 0.0 ] ] } },
{ "type": "Feature", "properties": { "id": null, "Name": "Trilha 0011", "description": null, "timestamp": null, "begin": null, "end": null, "altitudeMode": null, "tessellate": -1, "extrude": 0, "visibility": -1, "drawOrder": null, "icon": null }, "geometry": { "type": "LineString", "coordinates": [ [ 666941.331581590464339, 7576301.487626945599914, 0.0 ], [ 666941.201493102475069, 7576296.707343923859298, 0.0 ], [ 666942.517873901990242, 7576281.777669012546539, 0.0 ], [ 666937.13728786224965, 7576279.73138746060431, 0.0 ], [ 666934.775564569281414, 7576271.794588003307581, 0.0 ], [ 666926.517266247188672, 7576262.41188906878233, 0.0 ], [ 666931.216043805703521, 7576247.226410088129342, 0.0 ], [ 666922.015866108704358, 7576233.600400506518781, 0.0 ], [ 666926.070018818369135, 7576222.812391323037446, 0.0 ], [ 666918.586164093692787, 7576218.774455146864057, 0.0 ], [ 666916.733717992901802, 7576212.015832154080272, 0.0 ], [ 666919.737917287857272, 7576205.404134095646441, 0.0 ], [ 666926.759413104737177, 7576201.977894365787506, 0.0 ], [ 666951.970627283328213, 7576181.246470686048269, 0.0 ], [ 666965.285730005474761, 7576171.94884966313839, 0.0 ], [ 666985.62121480004862, 7576162.658268263563514, 0.0 ], [ 666998.285999593790621, 7576158.23434691876173, 0.0 ], [ 667000.989809047896415, 7576150.027603818103671, 0.0 ], [ 667001.630383519805036, 7576145.79906459338963, 0.0 ], [ 667006.082126724068075, 7576142.94952995236963, 0.0 ], [ 667012.641049244906753, 7576142.201828386634588, 0.0 ], [ 667017.221809520153329, 7576141.238339528441429, 0.0 ], [ 667022.129608558956534, 7576139.390369802713394, 0.0 ] ] } },
{ "type": "Feature", "properties": { "id": null, "Name": "Trilha 0012", "description": null, "timestamp": null, "begin": null, "end": null, "altitudeMode": null, "tessellate": -1, "extrude": 0, "visibility": -1, "drawOrder": null, "icon": null }, "geometry": { "type": "LineString", "coordinates": [ [ 667022.129608558956534, 7576139.390369802713394, 0.0 ], [ 667014.325994787272066, 7576115.54763238132, 0.0 ] ] } }
]
}
