{
"type": "FeatureCollection",
"name": "SÍTIO GLEBA 1",
"crs": { "type": "name", "properties": { "name": "urn:ogc:def:crs:EPSG::31983" } },
"features": [
{ "type": "Feature", "properties": { "id": null, "Name": "\n            Parte 1\n        ", "description": null, "timestamp": null, "begin": null, "end": null, "altitudeMode": null, "tessellate": -1, "extrude": 0, "visibility": -1, "drawOrder": null, "icon": null, "qrcode": "c2e79537-6f98-47d4-bd57-ab566f6b1162" }, "geometry": { "type": "MultiPolygon", "coordinates": [ [ [ [ 665445.779965534224175, 7571723.805514596402645, 493.227 ], [ 665453.094472229247913, 7571701.583269806578755, 495.381 ], [ 665448.042156483861618, 7571671.246569221839309, 491.458 ], [ 665427.233043888234533, 7571601.981796542182565, 492.475 ], [ 665425.391661714296788, 7571587.791217286139727, 488.79 ], [ 665390.410541002056561, 7571598.368314178660512, 489.129 ], [ 665383.543173184851184, 7571594.687495606020093, 495.075 ], [ 665365.217234815936536, 7571524.197515375912189, 491.601 ], [ 665354.717528944136575, 7571365.196589796803892, 486.287 ], [ 665407.159795119427145, 7571194.248866377398372, 482.374 ], [ 665409.82351134752389, 7571177.334862091578543, 480.344 ], [ 665409.567832333617844, 7571172.046909796074033, 480.595 ], [ 665406.025295783649199, 7571176.236282504163682, 481.102 ], [ 665389.892388754058629, 7571186.555469141341746, 481.368 ], [ 665371.390459727146663, 7571200.681899636052549, 481.822 ], [ 665344.938074799953029, 7571222.919243367388844, 482.619 ], [ 665329.419252974446863, 7571236.953538990579545, 483.207 ], [ 665317.518101444817148, 7571248.550520508550107, 483.639 ], [ 665305.306996467523277, 7571260.735378406941891, 483.94 ], [ 665284.505153737845831, 7571282.729753166437149, 484.41 ], [ 665268.093407849315554, 7571301.970917197875679, 484.673 ], [ 665254.601211690343916, 7571317.798801166936755, 484.974 ], [ 665246.319350573699921, 7571327.02042995672673, 485.511 ], [ 665235.405259430524893, 7571339.775217732414603, 485.868 ], [ 665229.224394879536703, 7571346.822325551882386, 485.908 ], [ 665223.550870994338766, 7571353.094567358493805, 485.992 ], [ 665217.953185746562667, 7571358.320735365152359, 486.057 ], [ 665207.349007641663775, 7571367.719397276639938, 486.057 ], [ 665199.605319558293559, 7571373.58361847139895, 486.116 ], [ 665191.600589726003818, 7571379.080727009102702, 486.329 ], [ 665186.898838964523748, 7571382.266762895509601, 486.486 ], [ 665174.020571001572534, 7571390.920685410499573, 486.992 ], [ 665165.240490388474427, 7571396.456877835094929, 487.347 ], [ 665156.912629185244441, 7571401.280787782743573, 487.599 ], [ 665148.955685838358477, 7571405.915904248133302, 487.819 ], [ 665143.511176187545061, 7571409.294595978222787, 488.021 ], [ 665139.862816475331783, 7571411.670159893110394, 488.188 ], [ 665134.592965951072983, 7571415.354850988835096, 488.496 ], [ 665128.446034092921764, 7571420.216881960630417, 488.77 ], [ 665123.100401839823462, 7571424.855733760632575, 488.955 ], [ 665116.756554852356203, 7571430.150549319572747, 489.112 ], [ 665110.265365955652669, 7571434.986268280074, 489.285 ], [ 665099.455548164900392, 7571441.220154294744134, 489.569 ], [ 665091.383924357360229, 7571445.856435557827353, 489.844 ], [ 665083.08364185586106, 7571450.555998910218477, 490.139 ], [ 665077.035927519784309, 7571453.940959196537733, 490.316 ], [ 665070.447043232969008, 7571457.731293527409434, 490.525 ], [ 665064.831310110981576, 7571461.235757911577821, 490.713 ], [ 665057.76261372200679, 7571465.768545059487224, 490.986 ], [ 665052.892571738688275, 7571469.264118215069175, 491.179 ], [ 665049.448799406760372, 7571471.945350490510464, 491.333 ], [ 665046.376598139060661, 7571474.499797084368765, 491.495 ], [ 665042.484511017333716, 7571478.17008189484477, 491.707 ], [ 665036.121963892248459, 7571484.449433896690607, 491.418 ], [ 665033.860685397754423, 7571487.702975089661777, 491.654 ], [ 665028.393838867777959, 7571497.263835649937391, 492.853 ], [ 665024.033430179813877, 7571505.551954575814307, 493.544 ], [ 665017.702642018673941, 7571517.55231449380517, 494.311 ], [ 665013.312915711198002, 7571525.902743236161768, 494.795 ], [ 665007.26442528446205, 7571537.438415030017495, 495.3 ], [ 664995.360421840334311, 7571559.801288383081555, 494.719 ], [ 664983.456047946587205, 7571582.132042272947729, 494.719 ], [ 664974.3847188873915, 7571598.190368032082915, 494.108 ], [ 664970.91930020856671, 7571604.34757590200752, 493.682 ], [ 664968.141182228922844, 7571610.343704306520522, 493.222 ], [ 664965.473467129166238, 7571618.706058164127171, 492.796 ], [ 664963.666196516947821, 7571626.968643251806498, 492.438 ], [ 664962.215674160746858, 7571636.456595923751593, 492.037 ], [ 664963.39497295289766, 7571636.721122648566961, 495.04 ], [ 664973.745575426029973, 7571638.73587612900883, 497.403 ], [ 664998.068799840984866, 7571643.403039073571563, 503.11 ], [ 665024.089059696998447, 7571648.45330454222858, 508.291 ], [ 665054.448798806290142, 7571654.195715906098485, 516.051 ], [ 665079.894189977319911, 7571659.189880816265941, 521.555 ], [ 665089.495575364446267, 7571660.873547542840242, 526.129 ], [ 665112.584387118113227, 7571665.431617110967636, 540.469 ], [ 665130.693275890196674, 7571668.502496336586773, 555.331 ], [ 665141.532392695778981, 7571670.603949971497059, 563.643 ], [ 665166.4903422112111, 7571675.603066941723228, 557.59 ], [ 665202.829902140772901, 7571682.421073412522674, 549.786 ], [ 665224.223691483726725, 7571686.780760567635298, 543.974 ], [ 665257.637564641889185, 7571693.660197950899601, 534.238 ], [ 665298.244802645407617, 7571702.494082220830023, 517.54 ], [ 665334.976646357448772, 7571708.385325688868761, 514.124 ], [ 665337.390782392001711, 7571708.789728717878461, 514.028 ], [ 665368.578785039717332, 7571714.093272862955928, 511.516 ], [ 665407.307388030458242, 7571721.562408814206719, 503.779 ], [ 665413.773656018194743, 7571722.54009466432035, 502.251 ], [ 665441.467700815177523, 7571723.0511390324682, 491.681 ], [ 665445.779965534224175, 7571723.805514596402645, 493.227 ] ] ] ] } }
]
}
