<?xml version="1.0" encoding="UTF-8"?>
<kml xmlns="http://earth.google.com/kml/2.0"><Document><name>GPS TrackMaker</name><visibility>1</visibility><Style id="waypoint"><Icon><href>http://maps.google.com/mapfiles/kml/pushpin/ylw-pushpin.png</href></Icon></Style><Style id="route"><Icon><href>root://icons/bitmap-4.png?x=160&amp;y=0&amp;w=32&amp;h=32</href></Icon></Style><LookAt><longitude>-43.38571</longitude><latitude>-21.90959</latitude><range>568</range></LookAt><Folder><name>Trilhas</name><visibility>1</visibility><Placemark><name>Trilha 0001</name><Style><LineStyle><color>FFFF0000</color><width>1</width></LineStyle></Style><LineString><coordinates>-43.3859443710905,-21.9087423812562,0 -43.3859351002571,-21.9087292601451,0 -43.3859177033651,-21.9087022661258,0 </coordinates></LineString></Placemark><Placemark><name>Trilha 0002</name><Style><LineStyle><color>FF0000FF</color><width>1</width></LineStyle></Style><LineString><coordinates>-43.386357621215,-21.9096213361553,0 -43.3861113262132,-21.9092528119497,0 -43.3862355788682,-21.9091696034784,0 </coordinates></LineString></Placemark><Placemark><name>Trilha 0003</name><Style><LineStyle><color>FF00FF00</color><width>1</width></LineStyle></Style><LineString><coordinates>-43.3864861119238,-21.9095362759784,0 -43.3864268844336,-21.9095776107892,0 -43.386357621215,-21.9096213361553,0 </coordinates></LineString></Placemark><Placemark><name>Trilha 0004</name><Style><LineStyle><color>FF008000</color><width>1</width></LineStyle></Style><LineString><coordinates>-43.3864861119238,-21.9095362759784,0 -43.386428793489,-21.9094475510891,0 </coordinates></LineString></Placemark><Placemark><name>Trilha 0005</name><Style><LineStyle><color>FFFF00FF</color><width>1</width></LineStyle></Style><LineString><coordinates>-43.386428793489,-21.9094475510891,0 -43.3863621033127,-21.9093546693117,0 </coordinates></LineString></Placemark><Placemark><name>Trilha 0006</name><Style><LineStyle><color>FF800000</color><width>1</width></LineStyle></Style><LineString><coordinates>-43.3859177033651,-21.9087022661258,0 -43.385771448832,-21.9087031168466,0 -43.3855824705441,-21.9086920949506,0 -43.3854861999972,-21.9087372308684,0 -43.3854120549708,-21.9087815152405,0 -43.3853133641829,-21.9089392079073,0 -43.3852444767033,-21.9090230757946,0 -43.3851640914201,-21.9091706582242,0 -43.3851241579112,-21.9091996721645,0 -43.3850295275009,-21.9092061223164,0 -43.3848760513263,-21.9091873144015,0 -43.3847158939315,-21.9091702650913,0 -43.3846068177522,-21.9092152327876,0 -43.3845416408124,-21.9092799226758,0 -43.3844017306446,-21.9093022598784,0 -43.3843168931976,-21.9092703198566,0 -43.3842358642788,-21.9092034511205,0 -43.3841080460601,-21.9091221330175,0 -43.3840746250492,-21.9091107278968,0 -43.3840083797076,-21.9091613696161,0 -43.3839600019385,-21.9093012201689,0 -43.3839501997533,-21.909414037729,0 -43.3839028936686,-21.9095333620783,0 -43.3838563352748,-21.9095891734426,0 </coordinates></LineString></Placemark><Placemark><name>Trilha 0007</name><Style><LineStyle><color>FF000080</color><width>1</width></LineStyle></Style><LineString><coordinates>-43.3862112860905,-21.9091347368117,0 -43.3861476455349,-21.9090396757006,0 -43.3860181738682,-21.9088478190339,0 -43.3859443710905,-21.9087423812562,0 </coordinates></LineString></Placemark><Placemark><name>Trilha 0008</name><Style><LineStyle><color>FF008080</color><width>1</width></LineStyle></Style><LineString><coordinates>-43.3863621033127,-21.9093546693117,0 -43.3863062924794,-21.9092732309784,0 -43.3862355788682,-21.9091696034784,0 </coordinates></LineString></Placemark><Placemark><name>Trilha 0009</name><Style><LineStyle><color>FFFFFF00</color><width>1</width></LineStyle></Style><LineString><coordinates>-43.3863188183127,-21.9096454182006,0 -43.3862343202626,-21.9096977347525,0 -43.3861606378068,-21.9097432282618,0 -43.3861087993646,-21.9097741993615,0 -43.3860289004805,-21.9098203221952,0 -43.385956505056,-21.9098622530033,0 -43.3858783174917,-21.9099107402034,0 -43.385791247023,-21.909967025257,0 -43.3857448933347,-21.9099983640912,0 -43.3856724572765,-21.9100471114619,0 -43.3856138190386,-21.9100887743995,0 -43.3855698766303,-21.9101207390442,0 -43.3855100780196,-21.9101619484821,0 -43.3854567855974,-21.9101947543765,0 -43.3854117471696,-21.9102235052821,0 -43.385330584174,-21.9102719882113,0 -43.3852628247789,-21.9103065432113,0 -43.3852029627785,-21.9103330591885,0 -43.3851250319701,-21.9103633602553,0 -43.3850112435787,-21.9104084454894,0 -43.3849263250373,-21.9104411295714,0 -43.3848523060071,-21.9104704901493,0 -43.384775708202,-21.9105008388495,0 -43.38469966558,-21.9105352475105,0 -43.3846296600306,-21.9105699365994,0 -43.3845523094485,-21.9106102051737,0 -43.3845072501803,-21.910630321377,0 -43.38445802029,-21.9106491589694,0 -43.3844121369303,-21.9106634943465,0 -43.3843636107959,-21.9106767597472,0 -43.3843179193899,-21.9106885593255,0 -43.384269538914,-21.9107010788092,0 -43.384180186047,-21.9107210572558,0 -43.384090350981,-21.9107415338048,0 -43.3840177842993,-21.9107634548919,0 -43.3839300121717,-21.9107972767532,0 -43.3838332675098,-21.9108419531037,0 -43.3837766328537,-21.9108709563214,0 -43.3837133136919,-21.9109046864443,0 -43.3836556136544,-21.9109414840047,0 -43.3835956388882,-21.9109877902094,0 -43.3835227242718,-21.9110464207364,0 -43.3834917077909,-21.911072378435,0 -43.3834196515777,-21.9111314119325,0 -43.3833779848112,-21.9111618106908,0 -43.383346526681,-21.9111828842485,0 -43.3833151880991,-21.9112013359435,0 -43.3832857528456,-21.9112168272821,0 -43.383245294815,-21.9112347312688,0 -43.3832150324366,-21.9112455618667,0 -43.3831710507961,-21.9112568815841,0 -43.383130942952,-21.911261465247,0 </coordinates></LineString></Placemark><Placemark><name>Trilha 0010</name><Style><LineStyle><color>FF008080</color><width>1</width></LineStyle></Style><LineString><coordinates>-43.3862112860905,-21.9091347368117,0 -43.3860515258127,-21.9092395018117,0 -43.3863188183127,-21.9096454182006,0 </coordinates></LineString></Placemark><Placemark><name>Trilha 0011</name><Style><LineStyle><color>FFFF0000</color><width>1</width></LineStyle></Style><LineString><coordinates>-43.3838563352748,-21.9095891734426,0 -43.3838571072014,-21.9096323568117,0 -43.3838428460903,-21.9097670623672,0 -43.3838947108125,-21.9097860540339,0 -43.383916758868,-21.9098579562561,0 -43.3839957266458,-21.9099434770894,0 -43.3839487047014,-21.9100801712561,0 -43.3840363558125,-21.9102041032005,0 -43.3839960205347,-21.9103011448672,0 -43.3840680380347,-21.9103383232005,0 -43.3840852774792,-21.9103995368116,0 -43.3840555291458,-21.9104589618116,0 -43.3839872258125,-21.9104892368117,0 -43.3837411183125,-21.9106740662561,0 -43.3836113066458,-21.9107567673672,0 -43.3834135519236,-21.9108387370894,0 -43.3832905305347,-21.910877485145,0 -43.383263526368,-21.9109513434783,0 -43.3832568958124,-21.9109894707005,0 -43.3832135210902,-21.9110147815339,0 -43.3831499672013,-21.911020910145,0 -43.3831055360902,-21.9110291757005,0 -43.3830578497013,-21.9110453979227,0 </coordinates></LineString></Placemark><Placemark><name>Trilha 0012</name><Style><LineStyle><color>FF0000FF</color><width>1</width></LineStyle></Style><LineString><coordinates>-43.3830578497013,-21.9110453979227,0 -43.383130942952,-21.911261465247,0 </coordinates></LineString></Placemark></Folder></Document></kml>
